KUIPER-00152            
1 65772U 25217L   25359.83335647 -.00274815  00000+0 -12638-1 0  9996
2 65772  51.8866   1.3595 0003414  60.5535  19.5462 15.21101027  4564
KUIPER-00153            
1 65773U 25217M   25359.06413655  .00014718  00000+0  87494-3 0  9994
2 65773  51.8782  14.8528 0013504  63.0942 297.1412 15.11405820 13801
KUIPER-00155            
1 65774U 25217N   25359.43839270 -.00002497  00000+0 -55886-4 0  9995
2 65774  51.8660   3.2924 0009629  64.6900 295.5084 15.37612871 13994
KUIPER-00156            
1 65775U 25217P   25359.83335647 -.00379129  00000+0 -11423-1 0  9994
2 65775  51.8737   0.5080 0003697  59.3711  53.8612 15.35328031  4894
KUIPER-00158            
1 65776U 25217Q   25359.83335647 -.00007210  00000+0 -88625-3 0  9994
2 65776  51.8981  12.2061 0000607  37.3009 115.2775 14.81382063  5359
KUIPER-00163            
1 65777U 25217R   25359.05316411  .00004789  00000+0  68104-3 0  9993
2 65777  51.8975  18.0974 0001186  45.9870 314.1189 14.78373892 13752
KUIPER-00165            
1 65778U 25217S   25359.83335647 -.01855011  00000+0 -13790+0 0  9994
2 65778  51.8905   4.0263 0006336  65.8663  52.9708 15.06180827  4036
KUIPER-00166            
1 65779U 25217T   25359.83335647  .00067964  00000+0  17943-2 0  9991
2 65779  51.8706   0.6876 0004120  43.5082 344.9368 15.37821045  4770
